{
  "type": "FeatureCollection",
  "features": [
    {
      "type": "Feature",
      "properties": {
        "norad_id": 43564,
        "name": "GSAT0221 (GALILEO 25)",
        "group": "galileo",
        "lat": -16.914063046811233,
        "lon": 178.40568662579432,
        "alt_km": 23220.806147505835,
        "timestamp": "2025-12-02T07:10:09.378338+00:00",
        "meta_object_name": "GSAT0221 (GALILEO 25)",
        "meta_object_id": "2018-060A",
        "meta_epoch": "2025-12-01T09:15:23.303232",
        "meta_mean_motion": 1.70475711,
        "meta_eccentricity": 0.00066191,
        "meta_inclination": 57.2301,
        "meta_ra_of_asc_node": 347.1247,
        "meta_arg_of_pericenter": 279.777,
        "meta_mean_anomaly": 80.1905,
        "meta_ephemeris_type": 0,
        "meta_classification_type": "U",
        "meta_norad_cat_id": 43564,
        "meta_element_set_no": 999,
        "meta_rev_at_epoch": 4579,
        "meta_bstar": 0,
        "meta_mean_motion_dot": -5.9e-07,
        "meta_mean_motion_ddot": 0,
        "tle_line1": "1 43564U 18060A   25335.38568638 -.00000059  00000+0  00000+0 0  9995",
        "tle_line2": "2 43564  57.2301 347.1247 0006619 279.7770  80.1905  1.70475711 45792"
      },
      "geometry": {
        "type": "Point",
        "coordinates": [
          178.40568662579432,
          -16.914063046811233
        ]
      }
    },
    {
      "type": "Feature",
      "properties": {
        "norad_id": 43565,
        "name": "GSAT0222 (GALILEO 26)",
        "group": "galileo",
        "lat": 50.019730638821116,
        "lon": 37.30200633089034,
        "alt_km": 23233.951389371192,
        "timestamp": "2025-12-02T07:10:09.378349+00:00",
        "meta_object_name": "GSAT0222 (GALILEO 26)",
        "meta_object_id": "2018-060B",
        "meta_epoch": "2025-11-29T06:12:28.687968",
        "meta_mean_motion": 1.70475509,
        "meta_eccentricity": 0.00061732,
        "meta_inclination": 57.2346,
        "meta_ra_of_asc_node": 347.1853,
        "meta_arg_of_pericenter": 259.4518,
        "meta_mean_anomaly": 100.5223,
        "meta_ephemeris_type": 0,
        "meta_classification_type": "U",
        "meta_norad_cat_id": 43565,
        "meta_element_set_no": 999,
        "meta_rev_at_epoch": 4580,
        "meta_bstar": 0,
        "meta_mean_motion_dot": -5.5e-07,
        "meta_mean_motion_ddot": 0,
        "tle_line1": "1 43565U 18060B   25333.25866537 -.00000055  00000+0  00000+0 0  9995",
        "tle_line2": "2 43565  57.2346 347.1853 0006173 259.4518 100.5223  1.70475509 45802"
      },
      "geometry": {
        "type": "Point",
        "coordinates": [
          37.30200633089034,
          50.019730638821116
        ]
      }
    },
    {
      "type": "Feature",
      "properties": {
        "norad_id": 43566,
        "name": "GSAT0219 (GALILEO 23)",
        "group": "galileo",
        "lat": -52.19571740994638,
        "lon": -69.01736238321062,
        "alt_km": 23210.67218296628,
        "timestamp": "2025-12-02T07:10:09.378360+00:00",
        "meta_object_name": "GSAT0219 (GALILEO 23)",
        "meta_object_id": "2018-060C",
        "meta_epoch": "2025-11-30T01:35:38.037408",
        "meta_mean_motion": 1.70475682,
        "meta_eccentricity": 0.00057799,
        "meta_inclination": 57.2334,
        "meta_ra_of_asc_node": 347.165,
        "meta_arg_of_pericenter": 285.7575,
        "meta_mean_anomaly": 74.2225,
        "meta_ephemeris_type": 0,
        "meta_classification_type": "U",
        "meta_norad_cat_id": 43566,
        "meta_element_set_no": 999,
        "meta_rev_at_epoch": 4579,
        "meta_bstar": 0,
        "meta_mean_motion_dot": -5.6e-07,
        "meta_mean_motion_ddot": 0,
        "tle_line1": "1 43566U 18060C   25334.06641247 -.00000056  00000+0  00000+0 0  9996",
        "tle_line2": "2 43566  57.2334 347.1650 0005779 285.7575  74.2225  1.70475682 45790"
      },
      "geometry": {
        "type": "Point",
        "coordinates": [
          -69.01736238321062,
          -52.19571740994638
        ]
      }
    },
    {
      "type": "Feature",
      "properties": {
        "norad_id": 43567,
        "name": "GSAT0220 (GALILEO 24)",
        "group": "galileo",
        "lat": 21.33359876816003,
        "lon": 152.54239018821605,
        "alt_km": 23230.324276811785,
        "timestamp": "2025-12-02T07:10:09.378372+00:00",
        "meta_object_name": "GSAT0220 (GALILEO 24)",
        "meta_object_id": "2018-060D",
        "meta_epoch": "2025-11-30T20:58:25.885344",
        "meta_mean_motion": 1.70475446,
        "meta_eccentricity": 0.00061088,
        "meta_inclination": 57.233,
        "meta_ra_of_asc_node": 347.1438,
        "meta_arg_of_pericenter": 281.1334,
        "meta_mean_anomaly": 78.841,
        "meta_ephemeris_type": 0,
        "meta_classification_type": "U",
        "meta_norad_cat_id": 43567,
        "meta_element_set_no": 999,
        "meta_rev_at_epoch": 4579,
        "meta_bstar": 0,
        "meta_mean_motion_dot": -5.8e-07,
        "meta_mean_motion_ddot": 0,
        "tle_line1": "1 43567U 18060D   25334.87391071 -.00000058  00000+0  00000+0 0  9995",
        "tle_line2": "2 43567  57.2330 347.1438 0006108 281.1334  78.8410  1.70475446 45795"
      },
      "geometry": {
        "type": "Point",
        "coordinates": [
          152.54239018821605,
          21.33359876816003
        ]
      }
    },
    {
      "type": "Feature",
      "properties": {
        "norad_id": 49809,
        "name": "GSAT0223 (GALILEO 27)",
        "group": "galileo",
        "lat": -49.70464525743011,
        "lon": -143.531259236925,
        "alt_km": 23213.502196903588,
        "timestamp": "2025-12-02T07:10:09.378383+00:00",
        "meta_object_name": "GSAT0223 (GALILEO 27)",
        "meta_object_id": "2021-116A",
        "meta_epoch": "2025-12-01T07:17:38.668992",
        "meta_mean_motion": 1.70475545,
        "meta_eccentricity": 0.0004753,
        "meta_inclination": 57.2221,
        "meta_ra_of_asc_node": 347.023,
        "meta_arg_of_pericenter": 247.908,
        "meta_mean_anomaly": 106.7158,
        "meta_ephemeris_type": 0,
        "meta_classification_type": "U",
        "meta_norad_cat_id": 49809,
        "meta_element_set_no": 999,
        "meta_rev_at_epoch": 2480,
        "meta_bstar": 0,
        "meta_mean_motion_dot": -5.9e-07,
        "meta_mean_motion_ddot": 0,
        "tle_line1": "1 49809U 21116A   25335.30391978 -.00000059  00000+0  00000+0 0  9992",
        "tle_line2": "2 49809  57.2221 347.0230 0004753 247.9080 106.7158  1.70475545 24809"
      },
      "geometry": {
        "type": "Point",
        "coordinates": [
          -143.531259236925,
          -49.70464525743011
        ]
      }
    },
    {
      "type": "Feature",
      "properties": {
        "norad_id": 49810,
        "name": "GSAT0224 (GALILEO 28)",
        "group": "galileo",
        "lat": -1.884064128904987,
        "lon": -14.211167548649899,
        "alt_km": 23226.482863410412,
        "timestamp": "2025-12-02T07:10:09.378394+00:00",
        "meta_object_name": "GSAT0224 (GALILEO 28)",
        "meta_object_id": "2021-116B",
        "meta_epoch": "2025-11-22T08:02:15.403200",
        "meta_mean_motion": 1.70476295,
        "meta_eccentricity": 0.00038769,
        "meta_inclination": 57.2249,
        "meta_ra_of_asc_node": 347.264,
        "meta_arg_of_pericenter": 247.2257,
        "meta_mean_anomaly": 115.5015,
        "meta_ephemeris_type": 0,
        "meta_classification_type": "U",
        "meta_norad_cat_id": 49810,
        "meta_element_set_no": 999,
        "meta_rev_at_epoch": 2468,
        "meta_bstar": 0,
        "meta_mean_motion_dot": -6.8e-07,
        "meta_mean_motion_ddot": 0,
        "tle_line1": "1 49810U 21116B   25326.33490050 -.00000068  00000+0  00000+0 0  9998",
        "tle_line2": "2 49810  57.2249 347.2640 0003876 247.2257 115.5015  1.70476295 24681"
      },
      "geometry": {
        "type": "Point",
        "coordinates": [
          -14.211167548649899,
          -1.884064128904987
        ]
      }
    },
    {
      "type": "Feature",
      "properties": {
        "norad_id": 59598,
        "name": "GSAT0225 (GALILEO 29)",
        "group": "galileo",
        "lat": -8.004566658587166,
        "lon": 100.9130595194422,
        "alt_km": 23229.79452999266,
        "timestamp": "2025-12-02T07:10:09.378406+00:00",
        "meta_object_name": "GSAT0225 (GALILEO 29)",
        "meta_object_id": "2024-079A",
        "meta_epoch": "2025-12-01T03:29:20.871744",
        "meta_mean_motion": 1.70474544,
        "meta_eccentricity": 0.0002155,
        "meta_inclination": 54.9941,
        "meta_ra_of_asc_node": 106.6197,
        "meta_arg_of_pericenter": 171.5653,
        "meta_mean_anomaly": 190.7741,
        "meta_ephemeris_type": 0,
        "meta_classification_type": "U",
        "meta_norad_cat_id": 59598,
        "meta_element_set_no": 999,
        "meta_rev_at_epoch": 994,
        "meta_bstar": 0,
        "meta_mean_motion_dot": 4.1e-07,
        "meta_mean_motion_ddot": 0,
        "tle_line1": "1 59598U 24079A   25335.14538046  .00000041  00000+0  00000+0 0  9990",
        "tle_line2": "2 59598  54.9941 106.6197 0002155 171.5653 190.7741  1.70474544  9948"
      },
      "geometry": {
        "type": "Point",
        "coordinates": [
          100.9130595194422,
          -8.004566658587166
        ]
      }
    }
  ]
}